ONEWEB-0053             
1 45157U 20008AC  24036.51298146 -.00000181  00000+0 -55528-3 0  9992
2 45157  87.8915 207.6506 0001474 102.4867 257.6426 13.10377706194935
ONEWEB-0054             
1 45158U 20008AD  24036.54873459  .00000425  00000+0  11804-2 0  9999
2 45158  87.8907 207.6278 0001471  98.1635 261.9660 13.10370413195054
ONEWEB-0056             
1 45159U 20008AE  24036.52923647  .00000547  00000+0  15306-2 0  9999
2 45159  87.8912 207.6268 0001571 102.1334 257.9970 13.10375053195204
ONEWEB-0057             
1 45160U 20008AF  24036.53573900  .00000710  00000+0  19973-2 0  9991
2 45160  87.8913 207.6223 0001645  99.1948 260.9366 13.10373129195379
ONEWEB-0058             
1 45161U 20008AG  24036.82830792  .00000281  00000+0  76844-3 0  9993
2 45161  87.8911 207.6085 0001695  92.6486 267.4835 13.10375798196237
ONEWEB-0059             
1 45162U 20008AH  24036.51948496  .00000136  00000+0  35477-3 0  9997
2 45162  87.8916 207.6427 0001639  92.2483 267.8832 13.10376779195346
ONEWEB-0062             
1 45163U 20008AJ  24036.54711077  .00000502  00000+0  14010-2 0  9990
2 45163  87.8908 207.6231 0001425  95.4616 264.6674 13.10370314195211
ONEWEB-0065             
1 45164U 20008AK  24036.52436040  .00000373  00000+0  10312-2 0  9990
2 45164  87.8920 207.6284 0001547 101.9227 258.2074 13.10377072194906
